[{"OBJECT_NAME":"ONEWEB-0092","OBJECT_ID":"2020-020P","EPOCH":"2026-01-13T03:16:11.694144","MEAN_MOTION":13.11418484,"ECCENTRICITY":0.00019836,"INCLINATION":87.8832,"RA_OF_ASC_NODE":51.9295,"ARG_OF_PERICENTER":101.6931,"MEAN_ANOMALY":258.442,"EPHEMERIS_TYPE":0,"CLASSIFICATION_TYPE":"U","NORAD_CAT_ID":45437,"ELEMENT_SET_NO":999,"REV_AT_EPOCH":28246,"BSTAR":-0.0012011841,"MEAN_MOTION_DOT":-4.13e-6,"MEAN_MOTION_DDOT":0},{"OBJECT_NAME":"ONEWEB-0085","OBJECT_ID":"2020-020Q","EPOCH":"2026-01-13T07:48:25.856928","MEAN_MOTION":13.11416151,"ECCENTRICITY":0.00018341,"INCLINATION":87.8824,"RA_OF_ASC_NODE":51.8986,"ARG_OF_PERICENTER":96.4712,"MEAN_ANOMALY":263.6625,"EPHEMERIS_TYPE":0,"CLASSIFICATION_TYPE":"U","NORAD_CAT_ID":45438,"ELEMENT_SET_NO":999,"REV_AT_EPOCH":28237,"BSTAR":0.0013727678,"MEAN_MOTION_DOT":4.99e-6,"MEAN_MOTION_DDOT":0},{"OBJECT_NAME":"ONEWEB-0096","OBJECT_ID":"2020-020R","EPOCH":"2026-01-13T07:50:51.642240","MEAN_MOTION":13.11416438,"ECCENTRICITY":0.000185,"INCLINATION":87.8834,"RA_OF_ASC_NODE":51.8814,"ARG_OF_PERICENTER":95.0956,"MEAN_ANOMALY":265.0383,"EPHEMERIS_TYPE":0,"CLASSIFICATION_TYPE":"U","NORAD_CAT_ID":45439,"ELEMENT_SET_NO":999,"REV_AT_EPOCH":28236,"BSTAR":0.0012560038,"MEAN_MOTION_DOT":4.58e-6,"MEAN_MOTION_DDOT":0},{"OBJECT_NAME":"ONEWEB-0037","OBJECT_ID":"2020-020S","EPOCH":"2026-01-13T03:43:03.912960","MEAN_MOTION":13.11418263,"ECCENTRICITY":0.00018747,"INCLINATION":87.8845,"RA_OF_ASC_NODE":51.8882,"ARG_OF_PERICENTER":98.4823,"MEAN_ANOMALY":261.6518,"EPHEMERIS_TYPE":0,"CLASSIFICATION_TYPE":"U","NORAD_CAT_ID":45440,"ELEMENT_SET_NO":999,"REV_AT_EPOCH":28237,"BSTAR":0.00085416702,"MEAN_MOTION_DOT":3.15e-6,"MEAN_MOTION_DDOT":0},{"OBJECT_NAME":"ONEWEB-0042","OBJECT_ID":"2020-020T","EPOCH":"2026-01-13T03:56:17.498688","MEAN_MOTION":13.11417436,"ECCENTRICITY":0.00019135,"INCLINATION":87.8832,"RA_OF_ASC_NODE":51.9128,"ARG_OF_PERICENTER":97.2794,"MEAN_ANOMALY":262.8552,"EPHEMERIS_TYPE":0,"CLASSIFICATION_TYPE":"U","NORAD_CAT_ID":45441,"ELEMENT_SET_NO":999,"REV_AT_EPOCH":28234,"BSTAR":0.0015781041,"MEAN_MOTION_DOT":5.72e-6,"MEAN_MOTION_DDOT":0},{"OBJECT_NAME":"ONEWEB-0098","OBJECT_ID":"2020-020U","EPOCH":"2026-01-13T03:50:23.438400","MEAN_MOTION":13.11418193,"ECCENTRICITY":0.00017319,"INCLINATION":87.8833,"RA_OF_ASC_NODE":51.9255,"ARG_OF_PERICENTER":96.2422,"MEAN_ANOMALY":263.8903,"EPHEMERIS_TYPE":0,"CLASSIFICATION_TYPE":"U","NORAD_CAT_ID":45442,"ELEMENT_SET_NO":999,"REV_AT_EPOCH":28232,"BSTAR":0.0012696815,"MEAN_MOTION_DOT":4.63e-6,"MEAN_MOTION_DDOT":0},{"OBJECT_NAME":"ONEWEB-0055","OBJECT_ID":"2020-020V","EPOCH":"2026-01-13T03:25:57.422208","MEAN_MOTION":13.1141913,"ECCENTRICITY":0.00017191,"INCLINATION":87.8833,"RA_OF_ASC_NODE":51.9292,"ARG_OF_PERICENTER":96.5514,"MEAN_ANOMALY":263.581,"EPHEMERIS_TYPE":0,"CLASSIFICATION_TYPE":"U","NORAD_CAT_ID":45443,"ELEMENT_SET_NO":999,"REV_AT_EPOCH":28229,"BSTAR":-0.00060573485,"MEAN_MOTION_DOT":-2.02e-6,"MEAN_MOTION_DDOT":0},{"OBJECT_NAME":"ONEWEB-0093","OBJECT_ID":"2020-020W","EPOCH":"2026-01-13T02:50:44.064384","MEAN_MOTION":13.11414252,"ECCENTRICITY":0.00021381,"INCLINATION":87.8832,"RA_OF_ASC_NODE":51.9218,"ARG_OF_PERICENTER":89.0488,"MEAN_ANOMALY":271.0885,"EPHEMERIS_TYPE":0,"CLASSIFICATION_TYPE":"U","NORAD_CAT_ID":45444,"ELEMENT_SET_NO":999,"REV_AT_EPOCH":28235,"BSTAR":-0.00094241009,"MEAN_MOTION_DOT":-3.21e-6,"MEAN_MOTION_DDOT":0},{"OBJECT_NAME":"ONEWEB-0029","OBJECT_ID":"2020-020X","EPOCH":"2026-01-13T03:13:44.307840","MEAN_MOTION":13.11417268,"ECCENTRICITY":0.00018552,"INCLINATION":87.8835,"RA_OF_ASC_NODE":51.9314,"ARG_OF_PERICENTER":92.1743,"MEAN_ANOMALY":267.9598,"EPHEMERIS_TYPE":0,"CLASSIFICATION_TYPE":"U","NORAD_CAT_ID":45445,"ELEMENT_SET_NO":999,"REV_AT_EPOCH":28233,"BSTAR":-0.0014030107,"MEAN_MOTION_DOT":-4.85e-6,"MEAN_MOTION_DDOT":0},{"OBJECT_NAME":"ONEWEB-0068","OBJECT_ID":"2020-020Y","EPOCH":"2026-01-13T02:50:21.022368","MEAN_MOTION":13.1141595,"ECCENTRICITY":0.0001851,"INCLINATION":87.8833,"RA_OF_ASC_NODE":51.9238,"ARG_OF_PERICENTER":90.7728,"MEAN_ANOMALY":269.3612,"EPHEMERIS_TYPE":0,"CLASSIFICATION_TYPE":"U","NORAD_CAT_ID":45446,"ELEMENT_SET_NO":999,"REV_AT_EPOCH":28227,"BSTAR":-0.00095789554,"MEAN_MOTION_DOT":-3.27e-6,"MEAN_MOTION_DDOT":0},{"OBJECT_NAME":"ONEWEB-0046","OBJECT_ID":"2020-020Z","EPOCH":"2026-01-13T02:38:20.569920","MEAN_MOTION":13.1141394,"ECCENTRICITY":0.00020602,"INCLINATION":87.8831,"RA_OF_ASC_NODE":51.933,"ARG_OF_PERICENTER":96.0994,"MEAN_ANOMALY":264.0368,"EPHEMERIS_TYPE":0,"CLASSIFICATION_TYPE":"U","NORAD_CAT_ID":45447,"ELEMENT_SET_NO":999,"REV_AT_EPOCH":28228,"BSTAR":-7.1827896e-5,"MEAN_MOTION_DOT":-1.3e-7,"MEAN_MOTION_DDOT":0},{"OBJECT_NAME":"ONEWEB-0063","OBJECT_ID":"2020-020AA","EPOCH":"2026-01-13T03:19:51.040416","MEAN_MOTION":13.11418216,"ECCENTRICITY":0.00020331,"INCLINATION":87.8835,"RA_OF_ASC_NODE":51.9251,"ARG_OF_PERICENTER":100.4937,"MEAN_ANOMALY":259.642,"EPHEMERIS_TYPE":0,"CLASSIFICATION_TYPE":"U","NORAD_CAT_ID":45448,"ELEMENT_SET_NO":999,"REV_AT_EPOCH":28237,"BSTAR":-0.0010781252,"MEAN_MOTION_DOT":-3.69e-6,"MEAN_MOTION_DDOT":0},{"OBJECT_NAME":"ONEWEB-0019","OBJECT_ID":"2020-020AB","EPOCH":"2026-01-13T07:55:33.209472","MEAN_MOTION":13.1141452,"ECCENTRICITY":0.00016313,"INCLINATION":87.8819,"RA_OF_ASC_NODE":51.8872,"ARG_OF_PERICENTER":94.5091,"MEAN_ANOMALY":265.6223,"EPHEMERIS_TYPE":0,"CLASSIFICATION_TYPE":"U","NORAD_CAT_ID":45449,"ELEMENT_SET_NO":999,"REV_AT_EPOCH":28224,"BSTAR":0.0010454181,"MEAN_MOTION_DOT":3.83e-6,"MEAN_MOTION_DDOT":0},{"OBJECT_NAME":"ONEWEB-0094","OBJECT_ID":"2020-020AC","EPOCH":"2026-01-13T07:02:09.017088","MEAN_MOTION":13.17650129,"ECCENTRICITY":0.00017402,"INCLINATION":87.9098,"RA_OF_ASC_NODE":36.6235,"ARG_OF_PERICENTER":89.1579,"MEAN_ANOMALY":270.9752,"EPHEMERIS_TYPE":0,"CLASSIFICATION_TYPE":"U","NORAD_CAT_ID":45450,"ELEMENT_SET_NO":999,"REV_AT_EPOCH":28591,"BSTAR":-1.2694844e-5,"MEAN_MOTION_DOT":8.0e-8,"MEAN_MOTION_DDOT":0},{"OBJECT_NAME":"ONEWEB-0087","OBJECT_ID":"2020-020AD","EPOCH":"2026-01-13T03:34:17.197824","MEAN_MOTION":13.11420229,"ECCENTRICITY":0.000187,"INCLINATION":87.8847,"RA_OF_ASC_NODE":51.8845,"ARG_OF_PERICENTER":87.5694,"MEAN_ANOMALY":272.5648,"EPHEMERIS_TYPE":0,"CLASSIFICATION_TYPE":"U","NORAD_CAT_ID":45451,"ELEMENT_SET_NO":999,"REV_AT_EPOCH":28226,"BSTAR":0.00015749975,"MEAN_MOTION_DOT":6.9e-7,"MEAN_MOTION_DDOT":0},{"OBJECT_NAME":"ONEWEB-0082","OBJECT_ID":"2020-020AE","EPOCH":"2026-01-13T03:29:36.922272","MEAN_MOTION":13.11419108,"ECCENTRICITY":0.00018212,"INCLINATION":87.8847,"RA_OF_ASC_NODE":51.9104,"ARG_OF_PERICENTER":88.519,"MEAN_ANOMALY":271.6146,"EPHEMERIS_TYPE":0,"CLASSIFICATION_TYPE":"U","NORAD_CAT_ID":45452,"ELEMENT_SET_NO":999,"REV_AT_EPOCH":28235,"BSTAR":-0.00054250645,"MEAN_MOTION_DOT":-1.8e-6,"MEAN_MOTION_DDOT":0},{"OBJECT_NAME":"ONEWEB-0050","OBJECT_ID":"2020-020AF","EPOCH":"2026-01-13T05:06:19.167840","MEAN_MOTION":14.89720925,"ECCENTRICITY":0.00041715,"INCLINATION":88.9222,"RA_OF_ASC_NODE":254.3486,"ARG_OF_PERICENTER":135.4164,"MEAN_ANOMALY":224.7401,"EPHEMERIS_TYPE":0,"CLASSIFICATION_TYPE":"U","NORAD_CAT_ID":45453,"ELEMENT_SET_NO":999,"REV_AT_EPOCH":31730,"BSTAR":0.00024308347,"MEAN_MOTION_DOT":2.348e-5,"MEAN_MOTION_DDOT":0}]
