ONEWEB-0092             
1 45437U 20020P   26013.13624646 -.00000413  00000+0 -12012-2 0  9998
2 45437  87.8832  51.9295 0001983 101.6931 258.4420 13.11418484282466
ONEWEB-0085             
1 45438U 20020Q   26013.32529927  .00000499  00000+0  13728-2 0  9993
2 45438  87.8824  51.8986 0001834  96.4712 263.6625 13.11416151282371
ONEWEB-0096             
1 45439U 20020R   26013.32698660  .00000458  00000+0  12560-2 0  9993
2 45439  87.8834  51.8814 0001850  95.0956 265.0383 13.11416438282360
ONEWEB-0037             
1 45440U 20020S   26013.15490640  .00000315  00000+0  85417-3 0  9998
2 45440  87.8845  51.8882 0001874  98.4823 261.6518 13.11418263282376
ONEWEB-0042             
1 45441U 20020T   26013.16409142  .00000572  00000+0  15781-2 0  9998
2 45441  87.8832  51.9128 0001913  97.2794 262.8552 13.11417436282344
ONEWEB-0098             
1 45442U 20020U   26013.15999350  .00000463  00000+0  12697-2 0  9995
2 45442  87.8833  51.9255 0001731  96.2422 263.8903 13.11418193282322
ONEWEB-0055             
1 45443U 20020V   26013.14302572 -.00000202  00000+0 -60573-3 0  9999
2 45443  87.8833  51.9292 0001719  96.5514 263.5810 13.11419130282297
ONEWEB-0093             
1 45444U 20020W   26013.11856556 -.00000321  00000+0 -94241-3 0  9994
2 45444  87.8832  51.9218 0002138  89.0488 271.0885 13.11414252282351
ONEWEB-0029             
1 45445U 20020X   26013.13454060 -.00000485  00000+0 -14030-2 0  9999
2 45445  87.8835  51.9314 0001855  92.1743 267.9598 13.11417268282339
ONEWEB-0068             
1 45446U 20020Y   26013.11829887 -.00000327  00000+0 -95790-3 0  9999
2 45446  87.8833  51.9238 0001851  90.7728 269.3612 13.11415950282278
ONEWEB-0046             
1 45447U 20020Z   26013.10996030 -.00000013  00000+0 -71828-4 0  9993
2 45447  87.8831  51.9330 0002060  96.0994 264.0368 13.11413940282285
ONEWEB-0063             
1 45448U 20020AA  26013.13878519 -.00000369  00000+0 -10781-2 0  9991
2 45448  87.8835  51.9251 0002033 100.4937 259.6420 13.11418216282379
ONEWEB-0019             
1 45449U 20020AB  26013.33024548  .00000383  00000+0  10454-2 0  9990
2 45449  87.8819  51.8872 0001631  94.5091 265.6223 13.11414520282245
ONEWEB-0094             
1 45450U 20020AC  26013.29315992  .00000008  00000+0 -12695-4 0  9999
2 45450  87.9098  36.6235 0001740  89.1579 270.9752 13.17650129285919
ONEWEB-0087             
1 45451U 20020AD  26013.14881016  .00000069  00000+0  15750-3 0  9999
2 45451  87.8847  51.8845 0001870  87.5694 272.5648 13.11420229282268
ONEWEB-0082             
1 45452U 20020AE  26013.14556623 -.00000180  00000+0 -54251-3 0  9998
2 45452  87.8847  51.9104 0001821  88.5190 271.6146 13.11419108282353
ONEWEB-0050             
1 45453U 20020AF  26013.21272185  .00002348  00000+0  24308-3 0  9991
2 45453  88.9222 254.3486 0004171 135.4164 224.7401 14.89720925317304
